OBJECT_NAME,OBJECT_ID,EPOCH,MEAN_MOTION,ECCENTRICITY,INCLINATION,RA_OF_ASC_NODE,ARG_OF_PERICENTER,MEAN_ANOMALY,EPHEMERIS_TYPE,CLASSIFICATION_TYPE,NORAD_CAT_ID,ELEMENT_SET_NO,REV_AT_EPOCH,BSTAR,MEAN_MOTION_DOT,MEAN_MOTION_DDOT
ONEWEB-0603,2022-166AB,2026-07-14T15:13:18.094944,13.21824026,.0001979,87.9243,238.4977,96.5798,263.5562,0,U,54667,999,17510,-.47762E-4,-.7E-7,0
ONEWEB-0604,2022-166AC,2026-07-14T14:56:20.791104,13.21824192,.0002139,87.9246,238.5155,97.3295,262.8082,0,U,54668,999,17506,-.29223E-4,.1E-7,0
ONEWEB-0605,2022-166AD,2026-07-14T14:46:39.510048,13.21824161,.0001931,87.9235,238.5282,78.5792,281.5559,0,U,54669,999,17513,.10972E-3,.58E-6,0
ONEWEB-0606,2022-166AE,2026-07-14T15:18:09.307008,13.21825258,.0002188,87.9233,238.5363,100.1694,259.9687,0,U,54670,999,17519,-.12642E-3,-.39E-6,0
ONEWEB-0607,2022-166AF,2026-07-14T14:29:43.903968,13.21825877,.0001896,87.9242,238.5156,97.3370,262.7980,0,U,54671,999,17516,.10963E-3,.58E-6,0
ONEWEB-0608,2022-166AG,2026-07-14T14:39:23.178816,13.21823370,.0001749,87.9244,238.5120,84.1469,275.9864,0,U,54672,999,17517,.73695E-4,.43E-6,0
ONEWEB-0610,2022-166AH,2026-07-14T14:10:21.175968,13.21825706,.0001489,87.9236,238.5274,91.9020,268.2285,0,U,54673,999,17507,.90986E-4,.51E-6,0
ONEWEB-0611,2022-166AJ,2026-07-14T15:49:37.788096,13.21826382,.0002217,87.9234,238.5091,98.4797,261.6588,0,U,54674,999,17507,-.11479E-4,.8E-7,0
ONEWEB-0612,2022-166AK,2026-07-14T16:09:02.066976,13.21826497,.0001917,87.9247,238.5051,94.1689,265.9664,0,U,54675,999,17506,.87101E-4,.49E-6,0
ONEWEB-0615,2022-166AL,2026-07-14T15:39:56.786976,13.21823911,.0002234,87.9236,238.5214,102.9685,257.1698,0,U,54676,999,17507,.76948E-5,.16E-6,0
ONEWEB-0655,2022-166AM,2026-07-14T15:06:02.356416,13.21823745,.0001894,87.9234,238.5270,100.8203,259.3145,0,U,54677,999,17506,.59385E-4,.38E-6,0
ONEWEB-0659,2022-166AN,2026-07-14T15:30:16.116768,13.21820536,.0002085,87.9231,238.5235,105.8175,254.3189,0,U,54678,999,17515,.16504E-2,.695E-5,0
ONEWEB-0685,2022-166AP,2026-07-14T15:29:44.602368,13.21848122,.0001746,87.9231,238.5147,90.5496,269.5838,0,U,54679,999,17504,.11883E-3,.62E-6,0
ONEWEB-0712,2022-166AQ,2026-07-14T11:52:40.211040,13.16595989,.00018047,87.9081,223.3505,106.8285,253.3044,0,U,54680,999,17565,-.49182698E-4,-.6E-7,0
ONEWEB-0714,2022-166AR,2026-07-14T15:37:33.274848,13.21825831,.0002039,87.9235,238.5117,106.6981,253.4377,0,U,54681,999,17516,-.31257E-4,0,0
ONEWEB-0532,2023-004A,2026-07-14T10:41:27.956544,13.17649266,.00019745,87.9142,0.4408,82.4700,277.6656,0,U,55140,999,17117,.28460389E-3,.123E-5,0
ONEWEB-0533,2023-004B,2026-07-14T19:50:13.492320,13.12442121,.0001649,87.8965,345.1743,95.7132,264.4185,0,U,55141,999,17168,-.12837E-2,-.449E-5,0
ONEWEB-0541,2023-004C,2026-07-14T13:44:54.448224,13.11415438,.0002025,87.8893,15.6066,89.9163,270.2197,0,U,55142,999,16953,.12608E-2,.46E-5,0
ONEWEB-0543,2023-004D,2026-07-14T18:47:23.913024,13.18686708,.0001878,87.9187,329.9804,104.4772,255.6568,0,U,55143,999,17333,-.13442E-4,.8E-7,0
ONEWEB-0544,2023-004E,2026-07-14T18:37:40.891872,13.18687372,.0002057,87.9187,329.9810,101.7287,258.4076,0,U,55144,999,17333,-.29752E-4,.1E-7,0
ONEWEB-0560,2023-004F,2026-07-14T20:17:14.243136,13.18684771,.0002081,87.9188,329.9568,104.6855,255.4508,0,U,55145,999,17335,-.18626E-3,-.61E-6,0
ONEWEB-0565,2023-004G,2026-07-14T20:07:31.908000,13.18687162,.0002295,87.9179,329.9835,94.4686,265.6709,0,U,55146,999,17334,-.106E-3,-.29E-6,0
ONEWEB-0567,2023-004H,2026-07-14T19:57:48.693312,13.18687246,.0002258,87.9187,329.9714,98.8055,261.3333,0,U,55147,999,17334,-.12356E-3,-.36E-6,0
ONEWEB-0569,2023-004J,2026-07-14T19:30:37.495008,13.13470859,.0002706,87.8989,314.7239,112.5066,247.6350,0,U,55148,999,17380,-.77137E-3,-.269E-5,0
ONEWEB-0570,2023-004K,2026-07-14T19:45:40.265280,13.18686667,.0002077,87.9187,329.9715,88.6625,271.4745,0,U,55149,999,17333,-.71863E-4,-.15E-6,0
ONEWEB-0571,2023-004L,2026-07-14T19:35:58.628256,13.18685936,.0003152,87.9187,329.9717,101.2715,258.8772,0,U,55150,999,17334,-.37674E-4,-.2E-7,0
ONEWEB-0572,2023-004M,2026-07-14T11:26:24.820224,13.17651658,.00020167,87.9143,0.4358,92.0212,268.1151,0,U,55151,999,17107,.66766589E-4,.39E-6,0
ONEWEB-0573,2023-004N,2026-07-14T19:26:13.957728,13.18685084,.0002778,87.9186,329.9749,96.3297,263.8151,0,U,55152,999,17333,-.67108E-3,-.252E-5,0
ONEWEB-0588,2023-004P,2026-07-14T19:16:32.577312,13.18686245,.0002165,87.9185,329.9760,86.0205,274.1175,0,U,55153,999,17333,.5656E-4,.35E-6,0
ONEWEB-0598,2023-004Q,2026-07-14T13:13:09.621984,13.11418843,.0002501,87.8885,15.6190,99.3709,260.7702,0,U,55154,999,16948,.35599E-3,.139E-5,0
