[
  {
    "name": "ONEWEB-0603",
    "noradId": "54667",
    "line1": "1 54667U 22166AB  26195.63423721 -.00000007  00000+0 -47762-4 0  9994",
    "line2": "2 54667  87.9243 238.4977 0001979  96.5798 263.5562 13.21824026175105"
  },
  {
    "name": "ONEWEB-0604",
    "noradId": "54668",
    "line1": "1 54668U 22166AC  26195.62246286  .00000001  00000+0 -29223-4 0  9998",
    "line2": "2 54668  87.9246 238.5155 0002139  97.3295 262.8082 13.21824192175066"
  },
  {
    "name": "ONEWEB-0605",
    "noradId": "54669",
    "line1": "1 54669U 22166AD  26195.61573507  .00000058  00000+0  10972-3 0  9998",
    "line2": "2 54669  87.9235 238.5282 0001931  78.5792 281.5559 13.21824161175139"
  },
  {
    "name": "ONEWEB-0606",
    "noradId": "54670",
    "line1": "1 54670U 22166AE  26195.63760772 -.00000039  00000+0 -12642-3 0  9991",
    "line2": "2 54670  87.9233 238.5363 0002188 100.1694 259.9687 13.21825258175192"
  },
  {
    "name": "ONEWEB-0607",
    "noradId": "54671",
    "line1": "1 54671U 22166AF  26195.60398037  .00000058  00000+0  10963-3 0  9993",
    "line2": "2 54671  87.9242 238.5156 0001896  97.3370 262.7980 13.21825877175168"
  },
  {
    "name": "ONEWEB-0608",
    "noradId": "54672",
    "line1": "1 54672U 22166AG  26195.61068494  .00000043  00000+0  73695-4 0  9992",
    "line2": "2 54672  87.9244 238.5120 0001749  84.1469 275.9864 13.21823370175176"
  },
  {
    "name": "ONEWEB-0610",
    "noradId": "54673",
    "line1": "1 54673U 22166AH  26195.59052287  .00000051  00000+0  90986-4 0  9994",
    "line2": "2 54673  87.9236 238.5274 0001489  91.9020 268.2285 13.21825706175074"
  },
  {
    "name": "ONEWEB-0611",
    "noradId": "54674",
    "line1": "1 54674U 22166AJ  26195.65946514  .00000008  00000+0 -11479-4 0  9990",
    "line2": "2 54674  87.9234 238.5091 0002217  98.4797 261.6588 13.21826382175077"
  },
  {
    "name": "ONEWEB-0612",
    "noradId": "54675",
    "line1": "1 54675U 22166AK  26195.67294059  .00000049  00000+0  87101-4 0  9992",
    "line2": "2 54675  87.9247 238.5051 0001917  94.1689 265.9664 13.21826497175065"
  },
  {
    "name": "ONEWEB-0615",
    "noradId": "54676",
    "line1": "1 54676U 22166AL  26195.65274059  .00000016  00000+0  76948-5 0  9991",
    "line2": "2 54676  87.9236 238.5214 0002234 102.9685 257.1698 13.21823911175071"
  },
  {
    "name": "ONEWEB-0655",
    "noradId": "54677",
    "line1": "1 54677U 22166AM  26195.62919394  .00000038  00000+0  59385-4 0  9996",
    "line2": "2 54677  87.9234 238.5270 0001894 100.8203 259.3145 13.21823745175061"
  },
  {
    "name": "ONEWEB-0659",
    "noradId": "54678",
    "line1": "1 54678U 22166AN  26195.64601987  .00000695  00000+0  16504-2 0  9998",
    "line2": "2 54678  87.9231 238.5235 0002085 105.8175 254.3189 13.21820536175154"
  },
  {
    "name": "ONEWEB-0685",
    "noradId": "54679",
    "line1": "1 54679U 22166AP  26195.64565512  .00000062  00000+0  11883-3 0  9996",
    "line2": "2 54679  87.9231 238.5147 0001746  90.5496 269.5838 13.21848122175044"
  },
  {
    "name": "ONEWEB-0712",
    "noradId": "54680",
    "line1": "1 54680U 22166AQ  26195.49490985 -.00000006  00000+0 -49183-4 0  9997",
    "line2": "2 54680  87.9081 223.3505 0001804 106.8285 253.3044 13.16595989175652"
  },
  {
    "name": "ONEWEB-0714",
    "noradId": "54681",
    "line1": "1 54681U 22166AR  26195.65107957  .00000000  00000+0 -31257-4 0  9996",
    "line2": "2 54681  87.9235 238.5117 0002039 106.6981 253.4377 13.21825831175167"
  },
  {
    "name": "ONEWEB-0532",
    "noradId": "55140",
    "line1": "1 55140U 23004A   26195.44546246  .00000123  00000+0  28460-3 0  9990",
    "line2": "2 55140  87.9142   0.4408 0001974  82.4700 277.6656 13.17649266171177"
  },
  {
    "name": "ONEWEB-0533",
    "noradId": "55141",
    "line1": "1 55141U 23004B   26195.82654505 -.00000449  00000+0 -12837-2 0  9994",
    "line2": "2 55141  87.8965 345.1743 0001649  95.7132 264.4185 13.12442121171689"
  },
  {
    "name": "ONEWEB-0541",
    "noradId": "55142",
    "line1": "1 55142U 23004C   26195.57285241  .00000460  00000+0  12608-2 0  9991",
    "line2": "2 55142  87.8893  15.6066 0002025  89.9163 270.2197 13.11415438169534"
  },
  {
    "name": "ONEWEB-0543",
    "noradId": "55143",
    "line1": "1 55143U 23004D   26195.78291566  .00000008  00000+0 -13442-4 0  9990",
    "line2": "2 55143  87.9187 329.9804 0001878 104.4772 255.6568 13.18686708173336"
  },
  {
    "name": "ONEWEB-0544",
    "noradId": "55144",
    "line1": "1 55144U 23004E   26195.77616773  .00000001  00000+0 -29752-4 0  9995",
    "line2": "2 55144  87.9187 329.9810 0002057 101.7287 258.4076 13.18687372173338"
  },
  {
    "name": "ONEWEB-0560",
    "noradId": "55145",
    "line1": "1 55145U 23004F   26195.84530374 -.00000061  00000+0 -18626-3 0  9990",
    "line2": "2 55145  87.9188 329.9568 0002081 104.6855 255.4508 13.18684771173359"
  },
  {
    "name": "ONEWEB-0565",
    "noradId": "55146",
    "line1": "1 55146U 23004G   26195.83856375 -.00000029  00000+0 -10600-3 0  9990",
    "line2": "2 55146  87.9179 329.9835 0002295  94.4686 265.6709 13.18687162173344"
  },
  {
    "name": "ONEWEB-0567",
    "noradId": "55147",
    "line1": "1 55147U 23004H   26195.83181358 -.00000036  00000+0 -12356-3 0  9991",
    "line2": "2 55147  87.9187 329.9714 0002258  98.8055 261.3333 13.18687246173346"
  },
  {
    "name": "ONEWEB-0569",
    "noradId": "55148",
    "line1": "1 55148U 23004J   26195.81293397 -.00000269  00000+0 -77137-3 0  9993",
    "line2": "2 55148  87.8989 314.7239 0002706 112.5066 247.6350 13.13470859173806"
  },
  {
    "name": "ONEWEB-0570",
    "noradId": "55149",
    "line1": "1 55149U 23004K   26195.82338270 -.00000015  00000+0 -71863-4 0  9995",
    "line2": "2 55149  87.9187 329.9715 0002077  88.6625 271.4745 13.18686667173332"
  },
  {
    "name": "ONEWEB-0571",
    "noradId": "55150",
    "line1": "1 55150U 23004L   26195.81665079 -.00000002  00000+0 -37674-4 0  9994",
    "line2": "2 55150  87.9187 329.9717 0003152 101.2715 258.8772 13.18685936173341"
  },
  {
    "name": "ONEWEB-0572",
    "noradId": "55151",
    "line1": "1 55151U 23004M   26195.47667616  .00000039  00000+0  66767-4 0  9999",
    "line2": "2 55151  87.9143   0.4358 0002016  92.0212 268.1151 13.17651658171079"
  },
  {
    "name": "ONEWEB-0573",
    "noradId": "55152",
    "line1": "1 55152U 23004N   26195.80988377 -.00000252  00000+0 -67108-3 0  9995",
    "line2": "2 55152  87.9186 329.9749 0002778  96.3297 263.8151 13.18685084173339"
  },
  {
    "name": "ONEWEB-0588",
    "noradId": "55153",
    "line1": "1 55153U 23004P   26195.80315483  .00000035  00000+0  56560-4 0  9996",
    "line2": "2 55153  87.9185 329.9760 0002165  86.0205 274.1175 13.18686245173338"
  },
  {
    "name": "ONEWEB-0598",
    "noradId": "55154",
    "line1": "1 55154U 23004Q   26195.55080581  .00000139  00000+0  35599-3 0  9990",
    "line2": "2 55154  87.8885  15.6190 0002501  99.3709 260.7702 13.11418843169489"
  }
]